OBJECT_NAME,OBJECT_ID,EPOCH,MEAN_MOTION,ECCENTRICITY,INCLINATION,RA_OF_ASC_NODE,ARG_OF_PERICENTER,MEAN_ANOMALY,EPHEMERIS_TYPE,CLASSIFICATION_TYPE,NORAD_CAT_ID,ELEMENT_SET_NO,REV_AT_EPOCH,BSTAR,MEAN_MOTION_DOT,MEAN_MOTION_DDOT
ONEWEB-0068,2020-020Y,2026-06-25T02:07:02.548416,13.11328194,.0001645,87.8890,19.4913,105.2671,254.8639,0,U,45446,999,30363,.50516E-1,.17928E-3,0
ONEWEB-0046,2020-020Z,2026-06-25T00:05:08.458368,13.11418280,.00019,87.8884,19.5135,78.6184,281.5157,0,U,45447,999,30363,.94254E-3,.347E-5,0
ONEWEB-0063,2020-020AA,2026-06-25T02:36:42.288192,13.11413849,.0002091,87.8890,19.4918,83.8006,276.3360,0,U,45448,999,30373,.4726E-3,.18E-5,0
ONEWEB-0019,2020-020AB,2026-06-25T01:42:35.891136,13.11418972,.0001802,87.8886,19.4855,91.9338,268.1996,0,U,45449,999,30357,-.13973E-3,-.37E-6,0
ONEWEB-0094,2020-020AC,2026-06-25T00:35:05.292384,13.17648058,.0001642,87.9140,4.2904,90.9897,269.1422,0,U,45450,999,30734,.17031E-3,.79E-6,0
ONEWEB-0087,2020-020AD,2026-06-25T01:01:04.840032,13.11414866,.0001587,87.8897,19.4798,81.5269,278.6038,0,U,45451,999,30361,-.69633E-3,-.234E-5,0
ONEWEB-0082,2020-020AE,2026-06-25T00:56:12.350112,13.11414438,.0001663,87.8890,19.4963,72.0332,288.0977,0,U,45452,999,30370,-.32371E-3,-.102E-5,0
ONEWEB-0050,2020-020AF,2026-06-25T03:10:35.243040,14.90409272,.0001558,88.9283,232.1307,14.0864,346.0408,0,U,45453,999,34156,.20541E-3,.2021E-4,0
ONEWEB-0034,2020-020AG,2026-06-25T01:50:19.668192,13.11421929,.0001931,87.8894,19.4986,80.8554,279.2792,0,U,45454,999,30362,-.12191E-2,-.419E-5,0
ONEWEB-0060,2020-020AH,2026-06-25T02:35:17.318976,13.11413908,.000094,87.8882,19.4895,66.0245,294.0981,0,U,45455,999,30358,.52986E-3,.2E-5,0
ONEWEB-0086,2020-020AJ,2026-06-25T00:14:43.095264,13.11417260,.0001017,87.8893,19.5046,107.0189,253.1050,0,U,45456,999,30363,.16272E-2,.589E-5,0
ONEWEB-0088,2020-020AK,2026-06-25T01:33:00.512064,13.11417611,.0002118,87.8900,19.4677,77.9953,282.1412,0,U,45457,999,30357,-.80168E-3,-.271E-5,0
ONEWEB-0102,2020-100A,2026-06-24T23:40:24.176352,13.12443223,.0001705,87.8942,349.1235,101.5558,258.5762,0,U,47258,999,26575,-.78433E-4,-.15E-6,0
ONEWEB-0109,2020-100B,2026-06-24T23:52:36.437088,13.12442750,.0001891,87.8952,349.1058,96.8263,263.3081,0,U,47259,999,26558,.63168E-3,.24E-5,0
ONEWEB-0110,2020-100C,2026-06-25T04:11:11.755104,13.12440904,.0001558,87.8952,349.0543,95.3612,264.7694,0,U,47260,999,26577,.81017E-3,.304E-5,0
ONEWEB-0111,2020-100D,2026-06-24T23:25:45.700896,13.12442358,.0001747,87.8952,349.1124,90.7784,269.3545,0,U,47261,999,26558,-.11139E-2,-.388E-5,0
ONEWEB-0114,2020-100E,2026-06-25T00:09:41.700096,13.12445753,.000196,87.8953,349.1041,97.0955,263.0396,0,U,47262,999,26554,.11122E-2,.413E-5,0
ONEWEB-0117,2020-100F,2026-06-24T23:57:28.692000,13.12444159,.0001782,87.8950,349.0964,93.1116,267.0216,0,U,47263,999,26555,.82235E-3,.309E-5,0
ONEWEB-0118,2020-100G,2026-06-25T04:25:49.567008,13.12442619,.0002128,87.8951,349.0619,89.9822,270.1551,0,U,47264,999,26577,-.11645E-3,-.29E-6,0
ONEWEB-0119,2020-100H,2026-06-24T21:43:17.603904,13.12444767,.0001843,87.8941,349.1337,92.9948,267.1391,0,U,47265,999,26571,-.61999E-3,-.21E-5,0
ONEWEB-0120,2020-100J,2026-06-25T00:07:25.983840,13.12444685,.0001923,87.8941,349.1150,96.8794,263.2553,0,U,47266,999,26575,.14182E-2,.523E-5,0
ONEWEB-0121,2020-100K,2026-06-24T23:50:09.000672,13.12444746,.0001576,87.8951,349.1041,84.2946,275.8362,0,U,47267,999,26566,.48355E-3,.187E-5,0
ONEWEB-0122,2020-100L,2026-06-24T23:41:37.764960,13.12444258,.0001797,87.8954,349.1100,97.8466,262.2866,0,U,47268,999,26557,-.27129E-3,-.85E-6,0
ONEWEB-0123,2020-100M,2026-06-24T23:35:30.438816,13.12443608,.0001932,87.8940,349.1172,91.0969,269.0381,0,U,47269,999,26571,-.10406E-2,-.362E-5,0
ONEWEB-0124,2020-100N,2026-06-25T01:10:38.948160,13.12441797,.0001759,87.8940,349.1071,89.6911,270.4419,0,U,47270,999,26560,-.10987E-2,-.383E-5,0
ONEWEB-0125,2020-100P,2026-06-25T04:18:30.528864,13.12440640,.0001835,87.8954,349.0652,82.2045,277.9292,0,U,47271,999,26568,.21734E-3,.91E-6,0
ONEWEB-0126,2020-100Q,2026-06-24T23:18:38.928960,13.12443165,.0001935,87.8946,349.1219,95.1203,265.0147,0,U,47272,999,26572,-.11783E-2,-.411E-5,0
ONEWEB-0127,2020-100R,2026-06-25T00:19:26.421600,13.12441558,.0001884,87.8941,349.1118,96.2521,263.8822,0,U,47273,999,26575,.11103E-2,.412E-5,0
ONEWEB-0128,2020-100S,2026-06-25T04:30:42.272064,13.12440633,.000154,87.8935,349.0909,95.0648,265.0656,0,U,47274,999,26579,-.68981E-3,-.235E-5,0
ONEWEB-0129,2020-100T,2026-06-25T04:01:26.380416,13.12443367,.000272,87.8951,349.0695,111.0321,249.1099,0,U,47275,999,26572,.11405E-2,.423E-5,0
