ONEWEB-0068             
1 45446U 20020Y   26176.08822394  .00017928  00000+0  50516-1 0  9999
2 45446  87.8890  19.4913 0001645 105.2671 254.8639 13.11328194303635
ONEWEB-0046             
1 45447U 20020Z   26176.00357012  .00000347  00000+0  94254-3 0  9998
2 45447  87.8884  19.5135 0001900  78.6184 281.5157 13.11418280303630
ONEWEB-0063             
1 45448U 20020AA  26176.10882278  .00000180  00000+0  47260-3 0  9997
2 45448  87.8890  19.4918 0002091  83.8006 276.3360 13.11413849303734
ONEWEB-0019             
1 45449U 20020AB  26176.07124874 -.00000037  00000+0 -13973-3 0  9992
2 45449  87.8886  19.4855 0001802  91.9338 268.1996 13.11418972303575
ONEWEB-0094             
1 45450U 20020AC  26176.02436681  .00000079  00000+0  17031-3 0  9994
2 45450  87.9140   4.2904 0001642  90.9897 269.1422 13.17648058307349
ONEWEB-0087             
1 45451U 20020AD  26176.04241713 -.00000234  00000+0 -69633-3 0  9997
2 45451  87.8897  19.4798 0001587  81.5269 278.6038 13.11414866303610
ONEWEB-0082             
1 45452U 20020AE  26176.03903183 -.00000102  00000+0 -32371-3 0  9996
2 45452  87.8890  19.4963 0001663  72.0332 288.0977 13.11414438303701
ONEWEB-0050             
1 45453U 20020AF  26176.13235235  .00002021  00000+0  20541-3 0  9990
2 45453  88.9283 232.1307 0001558  14.0864 346.0408 14.90409272341563
ONEWEB-0034             
1 45454U 20020AG  26176.07661653 -.00000419  00000+0 -12191-2 0  9993
2 45454  87.8894  19.4986 0001931  80.8554 279.2792 13.11421929303624
ONEWEB-0060             
1 45455U 20020AH  26176.10783934  .00000200  00000+0  52986-3 0  9998
2 45455  87.8882  19.4895 0000940  66.0245 294.0981 13.11413908303581
ONEWEB-0086             
1 45456U 20020AJ  26176.01022101  .00000589  00000+0  16272-2 0  9998
2 45456  87.8893  19.5046 0001017 107.0189 253.1050 13.11417260303636
ONEWEB-0088             
1 45457U 20020AK  26176.06458926 -.00000271  00000+0 -80168-3 0  9998
2 45457  87.8900  19.4677 0002118  77.9953 282.1412 13.11417611303579
ONEWEB-0102             
1 47258U 20100A   26175.98639093 -.00000015  00000+0 -78433-4 0  9993
2 47258  87.8942 349.1235 0001705 101.5558 258.5762 13.12443223265756
ONEWEB-0109             
1 47259U 20100B   26175.99486617  .00000240  00000+0  63168-3 0  9993
2 47259  87.8952 349.1058 0001891  96.8263 263.3081 13.12442750265589
ONEWEB-0110             
1 47260U 20100C   26176.17444161  .00000304  00000+0  81017-3 0  9998
2 47260  87.8952 349.0543 0001558  95.3612 264.7694 13.12440904265776
ONEWEB-0111             
1 47261U 20100D   26175.97622339 -.00000388  00000+0 -11139-2 0  9992
2 47261  87.8952 349.1124 0001747  90.7784 269.3545 13.12442358265582
ONEWEB-0114             
1 47262U 20100E   26176.00673264  .00000413  00000+0  11122-2 0  9990
2 47262  87.8953 349.1041 0001960  97.0955 263.0396 13.12445753265542
ONEWEB-0117             
1 47263U 20100F   26175.99824875  .00000309  00000+0  82235-3 0  9992
2 47263  87.8950 349.0964 0001782  93.1116 267.0216 13.12444159265556
ONEWEB-0118             
1 47264U 20100G   26176.18460147 -.00000029  00000+0 -11645-3 0  9991
2 47264  87.8951 349.0619 0002128  89.9822 270.1551 13.12442619265777
ONEWEB-0119             
1 47265U 20100H   26175.90506486 -.00000210  00000+0 -61999-3 0  9997
2 47265  87.8941 349.1337 0001843  92.9948 267.1391 13.12444767265719
ONEWEB-0120             
1 47266U 20100J   26176.00516185  .00000523  00000+0  14182-2 0  9993
2 47266  87.8941 349.1150 0001923  96.8794 263.2553 13.12444685265754
ONEWEB-0121             
1 47267U 20100K   26175.99315973  .00000187  00000+0  48355-3 0  9999
2 47267  87.8951 349.1041 0001576  84.2946 275.8362 13.12444746265664
ONEWEB-0122             
1 47268U 20100L   26175.98724265 -.00000085  00000+0 -27129-3 0  9992
2 47268  87.8954 349.1100 0001797  97.8466 262.2866 13.12444258265573
ONEWEB-0123             
1 47269U 20100M   26175.98299119 -.00000362  00000+0 -10406-2 0  9995
2 47269  87.8940 349.1172 0001932  91.0969 269.0381 13.12443608265714
ONEWEB-0124             
1 47270U 20100N   26176.04906190 -.00000383  00000+0 -10987-2 0  9996
2 47270  87.8940 349.1071 0001759  89.6911 270.4419 13.12441797265604
ONEWEB-0125             
1 47271U 20100P   26176.17952001  .00000091  00000+0  21734-3 0  9990
2 47271  87.8954 349.0652 0001835  82.2045 277.9292 13.12440640265681
ONEWEB-0126             
1 47272U 20100Q   26175.97128390 -.00000411  00000+0 -11783-2 0  9994
2 47272  87.8946 349.1219 0001935  95.1203 265.0147 13.12443165265720
ONEWEB-0127             
1 47273U 20100R   26176.01350025  .00000412  00000+0  11103-2 0  9998
2 47273  87.8941 349.1118 0001884  96.2521 263.8822 13.12441558265755
ONEWEB-0128             
1 47274U 20100S   26176.18798926 -.00000235  00000+0 -68981-3 0  9995
2 47274  87.8935 349.0909 0001540  95.0648 265.0656 13.12440633265798
ONEWEB-0129             
1 47275U 20100T   26176.16766644  .00000423  00000+0  11405-2 0  9991
2 47275  87.8951 349.0695 0002720 111.0321 249.1099 13.12443367265721
